CCSDS_OMM_VERS = 2.0
CREATION_DATE  = 
ORIGINATOR     = 

OBJECT_NAME    = STARLINK-35560
OBJECT_ID      = 2025-235B
CENTER_NAME    = EARTH
REF_FRAME      = TEME
TIME_SYSTEM    = UTC
MEAN_ELEMENT_THEORY = SGP/SGP4

EPOCH          = 2025-11-02T12:00:02.000160
MEAN_MOTION    = 15.76383471
ECCENTRICITY   = .0001041
INCLINATION    = 53.1516
RA_OF_ASC_NODE = 120.2474
ARG_OF_PERICENTER = 86.4676
MEAN_ANOMALY   = 117.7142

EPHEMERIS_TYPE = 0
CLASSIFICATION_TYPE = U
NORAD_CAT_ID   = 66059
ELEMENT_SET_NO = 999
REV_AT_EPOCH   = 340
BSTAR          = -.99964E-2
MEAN_MOTION_DOT = -.1427679E-1
MEAN_MOTION_DDOT = 0

CCSDS_OMM_VERS = 2.0
CREATION_DATE  = 
ORIGINATOR     = 

OBJECT_NAME    = STARLINK-35558
OBJECT_ID      = 2025-235C
CENTER_NAME    = EARTH
REF_FRAME      = TEME
TIME_SYSTEM    = UTC
MEAN_ELEMENT_THEORY = SGP/SGP4

EPOCH          = 2025-11-02T12:00:02.000160
MEAN_MOTION    = 15.76221097
ECCENTRICITY   = .0001017
INCLINATION    = 53.1508
RA_OF_ASC_NODE = 120.2416
ARG_OF_PERICENTER = 79.2625
MEAN_ANOMALY   = 127.1605

EPHEMERIS_TYPE = 0
CLASSIFICATION_TYPE = U
NORAD_CAT_ID   = 66060
ELEMENT_SET_NO = 999
REV_AT_EPOCH   = 340
BSTAR          = -.94197E-2
MEAN_MOTION_DOT = -.1345521E-1
MEAN_MOTION_DDOT = 0

CCSDS_OMM_VERS = 2.0
CREATION_DATE  = 
ORIGINATOR     = 

OBJECT_NAME    = STARLINK-35566
OBJECT_ID      = 2025-235D
CENTER_NAME    = EARTH
REF_FRAME      = TEME
TIME_SYSTEM    = UTC
MEAN_ELEMENT_THEORY = SGP/SGP4

EPOCH          = 2025-11-02T12:00:02.000160
MEAN_MOTION    = 15.76142302
ECCENTRICITY   = .0001034
INCLINATION    = 53.1509
RA_OF_ASC_NODE = 120.2377
ARG_OF_PERICENTER = 75.3022
MEAN_ANOMALY   = 133.2172

EPHEMERIS_TYPE = 0
CLASSIFICATION_TYPE = U
NORAD_CAT_ID   = 66061
ELEMENT_SET_NO = 999
REV_AT_EPOCH   = 340
BSTAR          = -.93422E-2
MEAN_MOTION_DOT = -.1331465E-1
MEAN_MOTION_DDOT = 0

CCSDS_OMM_VERS = 2.0
CREATION_DATE  = 
ORIGINATOR     = 

OBJECT_NAME    = STARLINK-35421
OBJECT_ID      = 2025-235E
CENTER_NAME    = EARTH
REF_FRAME      = TEME
TIME_SYSTEM    = UTC
MEAN_ELEMENT_THEORY = SGP/SGP4

EPOCH          = 2025-11-02T12:00:02.000160
MEAN_MOTION    = 15.76099547
ECCENTRICITY   = .0001041
INCLINATION    = 53.1507
RA_OF_ASC_NODE = 120.2326
ARG_OF_PERICENTER = 97.4984
MEAN_ANOMALY   = 113.1141

EPHEMERIS_TYPE = 0
CLASSIFICATION_TYPE = U
NORAD_CAT_ID   = 66062
ELEMENT_SET_NO = 999
REV_AT_EPOCH   = 340
BSTAR          = -.10016E-1
MEAN_MOTION_DOT = -.1414177E-1
MEAN_MOTION_DDOT = 0

CCSDS_OMM_VERS = 2.0
CREATION_DATE  = 
ORIGINATOR     = 

OBJECT_NAME    = STARLINK-35562
OBJECT_ID      = 2025-235F
CENTER_NAME    = EARTH
REF_FRAME      = TEME
TIME_SYSTEM    = UTC
MEAN_ELEMENT_THEORY = SGP/SGP4

EPOCH          = 2025-11-02T12:00:02.000160
MEAN_MOTION    = 15.76007784
ECCENTRICITY   = .000118
INCLINATION    = 53.1515
RA_OF_ASC_NODE = 120.2286
ARG_OF_PERICENTER = 82.6771
MEAN_ANOMALY   = 130.0469

EPHEMERIS_TYPE = 0
CLASSIFICATION_TYPE = U
NORAD_CAT_ID   = 66063
ELEMENT_SET_NO = 999
REV_AT_EPOCH   = 340
BSTAR          = -.10018E-1
MEAN_MOTION_DOT = -.1409381E-1
MEAN_MOTION_DDOT = 0

CCSDS_OMM_VERS = 2.0
CREATION_DATE  = 
ORIGINATOR     = 

OBJECT_NAME    = STARLINK-35542
OBJECT_ID      = 2025-235G
CENTER_NAME    = EARTH
REF_FRAME      = TEME
TIME_SYSTEM    = UTC
MEAN_ELEMENT_THEORY = SGP/SGP4

EPOCH          = 2025-11-02T12:00:02.000160
MEAN_MOTION    = 15.75945863
ECCENTRICITY   = .0001089
INCLINATION    = 53.1504
RA_OF_ASC_NODE = 120.2234
ARG_OF_PERICENTER = 94.8659
MEAN_ANOMALY   = 119.9539

EPHEMERIS_TYPE = 0
CLASSIFICATION_TYPE = U
NORAD_CAT_ID   = 66064
ELEMENT_SET_NO = 999
REV_AT_EPOCH   = 340
BSTAR          = -.10168E-1
MEAN_MOTION_DOT = -.1424537E-1
MEAN_MOTION_DDOT = 0

CCSDS_OMM_VERS = 2.0
CREATION_DATE  = 
ORIGINATOR     = 

OBJECT_NAME    = STARLINK-35375
OBJECT_ID      = 2025-235H
CENTER_NAME    = EARTH
REF_FRAME      = TEME
TIME_SYSTEM    = UTC
MEAN_ELEMENT_THEORY = SGP/SGP4

EPOCH          = 2025-11-02T12:00:02.000160
MEAN_MOTION    = 15.75870201
ECCENTRICITY   = .0001117
INCLINATION    = 53.1514
RA_OF_ASC_NODE = 120.2197
ARG_OF_PERICENTER = 88.3802
MEAN_ANOMALY   = 128.4664

EPHEMERIS_TYPE = 0
CLASSIFICATION_TYPE = U
NORAD_CAT_ID   = 66065
ELEMENT_SET_NO = 999
REV_AT_EPOCH   = 340
BSTAR          = -.99081E-2
MEAN_MOTION_DOT = -.1388126E-1
MEAN_MOTION_DDOT = 0

CCSDS_OMM_VERS = 2.0
CREATION_DATE  = 
ORIGINATOR     = 

OBJECT_NAME    = STARLINK-35179
OBJECT_ID      = 2025-235J
CENTER_NAME    = EARTH
REF_FRAME      = TEME
TIME_SYSTEM    = UTC
MEAN_ELEMENT_THEORY = SGP/SGP4

EPOCH          = 2025-11-02T12:00:02.000160
MEAN_MOTION    = 15.75755276
ECCENTRICITY   = .0001029
INCLINATION    = 53.1513
RA_OF_ASC_NODE = 120.2157
ARG_OF_PERICENTER = 99.0997
MEAN_ANOMALY   = 119.9153

EPHEMERIS_TYPE = 0
CLASSIFICATION_TYPE = U
NORAD_CAT_ID   = 66066
ELEMENT_SET_NO = 999
REV_AT_EPOCH   = 340
BSTAR          = -.10486E-1
MEAN_MOTION_DOT = -.1452967E-1
MEAN_MOTION_DDOT = 0

CCSDS_OMM_VERS = 2.0
CREATION_DATE  = 
ORIGINATOR     = 

OBJECT_NAME    = STARLINK-35401
OBJECT_ID      = 2025-235K
CENTER_NAME    = EARTH
REF_FRAME      = TEME
TIME_SYSTEM    = UTC
MEAN_ELEMENT_THEORY = SGP/SGP4

EPOCH          = 2025-11-02T12:00:02.000160
MEAN_MOTION    = 15.75689311
ECCENTRICITY   = .0000925
INCLINATION    = 53.1516
RA_OF_ASC_NODE = 120.2112
ARG_OF_PERICENTER = 76.8817
MEAN_ANOMALY   = 144.1709

EPHEMERIS_TYPE = 0
CLASSIFICATION_TYPE = U
NORAD_CAT_ID   = 66067
ELEMENT_SET_NO = 999
REV_AT_EPOCH   = 336
BSTAR          = -.1066E-1
MEAN_MOTION_DOT = -.1470361E-1
MEAN_MOTION_DDOT = 0

CCSDS_OMM_VERS = 2.0
CREATION_DATE  = 
ORIGINATOR     = 

OBJECT_NAME    = STARLINK-35422
OBJECT_ID      = 2025-235L
CENTER_NAME    = EARTH
REF_FRAME      = TEME
TIME_SYSTEM    = UTC
MEAN_ELEMENT_THEORY = SGP/SGP4

EPOCH          = 2025-11-02T12:00:02.000160
MEAN_MOTION    = 15.75643716
ECCENTRICITY   = .0000957
INCLINATION    = 53.1511
RA_OF_ASC_NODE = 120.2068
ARG_OF_PERICENTER = 80.3665
MEAN_ANOMALY   = 142.6726

EPHEMERIS_TYPE = 0
CLASSIFICATION_TYPE = U
NORAD_CAT_ID   = 66068
ELEMENT_SET_NO = 999
REV_AT_EPOCH   = 336
BSTAR          = -.10637E-1
MEAN_MOTION_DOT = -.1464902E-1
MEAN_MOTION_DDOT = 0

CCSDS_OMM_VERS = 2.0
CREATION_DATE  = 
ORIGINATOR     = 

OBJECT_NAME    = STARLINK-35279
OBJECT_ID      = 2025-235M
CENTER_NAME    = EARTH
REF_FRAME      = TEME
TIME_SYSTEM    = UTC
MEAN_ELEMENT_THEORY = SGP/SGP4

EPOCH          = 2025-11-02T12:00:02.000160
MEAN_MOTION    = 15.75615016
ECCENTRICITY   = .0001175
INCLINATION    = 53.1510
RA_OF_ASC_NODE = 120.2027
ARG_OF_PERICENTER = 86.6351
MEAN_ANOMALY   = 138.4771

EPHEMERIS_TYPE = 0
CLASSIFICATION_TYPE = U
NORAD_CAT_ID   = 66069
ELEMENT_SET_NO = 999
REV_AT_EPOCH   = 340
BSTAR          = -.11629E-1
MEAN_MOTION_DOT = -.1613322E-1
MEAN_MOTION_DDOT = 0

CCSDS_OMM_VERS = 2.0
CREATION_DATE  = 
ORIGINATOR     = 

OBJECT_NAME    = STARLINK-35295
OBJECT_ID      = 2025-235N
CENTER_NAME    = EARTH
REF_FRAME      = TEME
TIME_SYSTEM    = UTC
MEAN_ELEMENT_THEORY = SGP/SGP4

EPOCH          = 2025-11-02T12:00:02.000160
MEAN_MOTION    = 15.75292734
ECCENTRICITY   = .0001194
INCLINATION    = 53.1512
RA_OF_ASC_NODE = 120.1943
ARG_OF_PERICENTER = 80.8765
MEAN_ANOMALY   = 148.3540

EPHEMERIS_TYPE = 0
CLASSIFICATION_TYPE = U
NORAD_CAT_ID   = 66070
ELEMENT_SET_NO = 999
REV_AT_EPOCH   = 340
BSTAR          = -.97661E-2
MEAN_MOTION_DOT = -.1339592E-1
MEAN_MOTION_DDOT = 0

