STARLINK-35560          
1 66059U 25235B   25306.50002315 -.01427679  00000+0 -99964-2 0  9991
2 66059  53.1516 120.2474 0001041  86.4676 117.7142 15.76383471  3407
STARLINK-35558          
1 66060U 25235C   25306.50002315 -.01345521  00000+0 -94197-2 0  9991
2 66060  53.1508 120.2416 0001017  79.2625 127.1605 15.76221097  3407
STARLINK-35566          
1 66061U 25235D   25306.50002315 -.01331465  00000+0 -93422-2 0  9994
2 66061  53.1509 120.2377 0001034  75.3022 133.2172 15.76142302  3400
STARLINK-35421          
1 66062U 25235E   25306.50002315 -.01414177  00000+0 -10016-1 0  9994
2 66062  53.1507 120.2326 0001041  97.4984 113.1141 15.76099547  3408
STARLINK-35562          
1 66063U 25235F   25306.50002315 -.01409381  00000+0 -10018-1 0  9998
2 66063  53.1515 120.2286 0001180  82.6771 130.0469 15.76007784  3400
STARLINK-35542          
1 66064U 25235G   25306.50002315 -.01424537  00000+0 -10168-1 0  9995
2 66064  53.1504 120.2234 0001089  94.8659 119.9539 15.75945863  3402
STARLINK-35375          
1 66065U 25235H   25306.50002315 -.01388126  00000+0 -99081-2 0  9991
2 66065  53.1514 120.2197 0001117  88.3802 128.4664 15.75870201  3409
STARLINK-35179          
1 66066U 25235J   25306.50002315 -.01452967  00000+0 -10486-1 0  9998
2 66066  53.1513 120.2157 0001029  99.0997 119.9153 15.75755276  3403
STARLINK-35401          
1 66067U 25235K   25306.50002315 -.01470361  00000+0 -10660-1 0  9991
2 66067  53.1516 120.2112 0000925  76.8817 144.1709 15.75689311  3364
STARLINK-35422          
1 66068U 25235L   25306.50002315 -.01464902  00000+0 -10637-1 0  9990
2 66068  53.1511 120.2068 0000957  80.3665 142.6726 15.75643716  3367
STARLINK-35279          
1 66069U 25235M   25306.50002315 -.01613322  00000+0 -11629-1 0  9995
2 66069  53.1510 120.2027 0001175  86.6351 138.4771 15.75615016  3406
STARLINK-35295          
1 66070U 25235N   25306.50002315 -.01339592  00000+0 -97661-2 0  9992
2 66070  53.1512 120.1943 0001194  80.8765 148.3540 15.75292734  3404
